[
    {
        "Altitude(m)": 717760.0403372878,
        "Argument of Periapsis(deg)": 0.0022780242373254137,
        "Eccentricity": 0.0,
        "Inclination(deg)": 45.0,
        "Latitude(deg)": -44.85534697422994,
        "Longitude(deg)": -118.39125600955775,
        "Mean Anomaly(deg)": 264.1248433294961,
        "RAAN(deg)": 79.99784961170835,
        "Satellite Name": "Constellation 1 368",
        "Satellite Number": 368,
        "Semi-Major Axis(m)": 7083131.272910544,
        "Time(s)": 38
    },
    {
        "Altitude(m)": 717762.557692095,
        "Argument of Periapsis(deg)": 0.002337972243570819,
        "Eccentricity": 0.0,
        "Inclination(deg)": 45.0,
        "Latitude(deg)": -44.86147726785461,
        "Longitude(deg)": -118.3106021011051,
        "Mean Anomaly(deg)": 264.18554446974605,
        "RAAN(deg)": 79.9977930225428,
        "Satellite Name": "Constellation 1 368",
        "Satellite Number": 368,
        "Semi-Major Axis(m)": 7083131.272910544,
        "Time(s)": 39
    },
    {
        "Altitude(m)": 717765.0490840467,
        "Argument of Periapsis(deg)": 0.0023979202498162246,
        "Eccentricity": 0.0,
        "Inclination(deg)": 45.0,
        "Latitude(deg)": -44.86754465567189,
        "Longitude(deg)": -118.2299303323724,
        "Mean Anomaly(deg)": 264.246245609996,
        "RAAN(deg)": 79.99773643337721,
        "Satellite Name": "Constellation 1 368",
        "Satellite Number": 368,
        "Semi-Major Axis(m)": 7083131.272910544,
        "Time(s)": 40
    },
    {
        "Altitude(m)": 717767.5145039221,
        "Argument of Periapsis(deg)": 0.00245786825606163,
        "Eccentricity": 0.0,
        "Inclination(deg)": 45.0,
        "Latitude(deg)": -44.87354911146992,
        "Longitude(deg)": -118.1492408801413,
        "Mean Anomaly(deg)": 264.30694675024586,
        "RAAN(deg)": 79.99767984421165,
        "Satellite Name": "Constellation 1 368",
        "Satellite Number": 368,
        "Semi-Major Axis(m)": 7083131.272910544,
        "Time(s)": 41
    },
    {
        "Altitude(m)": 717769.9539426094,
        "Argument of Periapsis(deg)": 0.002517816262307036,
        "Eccentricity": 0.0,
        "Inclination(deg)": 45.0,
        "Latitude(deg)": -44.87949060929513,
        "Longitude(deg)": -118.06853392149843,
        "Mean Anomaly(deg)": 264.36764789049573,
        "RAAN(deg)": 79.99762325504607,
        "Satellite Name": "Constellation 1 368",
        "Satellite Number": 368,
        "Semi-Major Axis(m)": 7083131.272910544,
        "Time(s)": 42
    },
    {
        "Altitude(m)": 717772.3673910731,
        "Argument of Periapsis(deg)": 0.0025777642685524413,
        "Eccentricity": 0.0,
        "Inclination(deg)": 45.0,
        "Latitude(deg)": -44.88536912345278,
        "Longitude(deg)": -117.98780963383273,
        "Mean Anomaly(deg)": 264.4283490307457,
        "RAAN(deg)": 79.99756666588051,
        "Satellite Name": "Constellation 1 368",
        "Satellite Number": 368,
        "Semi-Major Axis(m)": 7083131.272910544,
        "Time(s)": 43
    },
    {
        "Altitude(m)": 717774.7548403861,
        "Argument of Periapsis(deg)": 0.002637712274797847,
        "Eccentricity": 0.0,
        "Inclination(deg)": 45.0,
        "Latitude(deg)": -44.89118462850722,
        "Longitude(deg)": -117.90706836293012,
        "Mean Anomaly(deg)": 264.4890501709955,
        "RAAN(deg)": 79.99751007671495,
        "Satellite Name": "Constellation 1 368",
        "Satellite Number": 368,
        "Semi-Major Axis(m)": 7083131.272910544,
        "Time(s)": 44
    },
    {
        "Altitude(m)": 717777.1162817182,
        "Argument of Periapsis(deg)": 0.0026976602810432526,
        "Eccentricity": 0.0,
        "Inclination(deg)": 45.0,
        "Latitude(deg)": -44.89693709928322,
        "Longitude(deg)": -117.82630995058108,
        "Mean Anomaly(deg)": 264.5497513112455,
        "RAAN(deg)": 79.99745348754936,
        "Satellite Name": "Constellation 1 368",
        "Satellite Number": 368,
        "Semi-Major Axis(m)": 7083131.272910544,
        "Time(s)": 45
    },
    {
        "Altitude(m)": 717779.45170633,
        "Argument of Periapsis(deg)": 0.0027576082872886585,
        "Eccentricity": 0.0,
        "Inclination(deg)": 45.0,
        "Latitude(deg)": -44.90262651086538,
        "Longitude(deg)": -117.74553474316184,
        "Mean Anomaly(deg)": 264.61045245149535,
        "RAAN(deg)": 79.9973968983838,
        "Satellite Name": "Constellation 1 368",
        "Satellite Number": 368,
        "Semi-Major Axis(m)": 7083131.272910544,
        "Time(s)": 46
    },
    {
        "Altitude(m)": 717781.7611055784,
        "Argument of Periapsis(deg)": 0.0028175562935340644,
        "Eccentricity": 0.0,
        "Inclination(deg)": 45.0,
        "Latitude(deg)": -44.90825283859938,
        "Longitude(deg)": -117.66474291924186,
        "Mean Anomaly(deg)": 264.6711535917453,
        "RAAN(deg)": 79.99734030921823,
        "Satellite Name": "Constellation 1 368",
        "Satellite Number": 368,
        "Semi-Major Axis(m)": 7083131.272910544,
        "Time(s)": 47
    },
    {
        "Altitude(m)": 717784.0444709145,
        "Argument of Periapsis(deg)": 0.00287750429977947,
        "Eccentricity": 0.0,
        "Inclination(deg)": 45.0,
        "Latitude(deg)": -44.91381605809221,
        "Longitude(deg)": -117.58393465767905,
        "Mean Anomaly(deg)": 264.73185473199516,
        "RAAN(deg)": 79.99728372005266,
        "Satellite Name": "Constellation 1 368",
        "Satellite Number": 368,
        "Semi-Major Axis(m)": 7083131.272910544,
        "Time(s)": 48
    },
    {
        "Altitude(m)": 717786.3017938957,
        "Argument of Periapsis(deg)": 0.002937452306024875,
        "Eccentricity": 0.0,
        "Inclination(deg)": 45.0,
        "Latitude(deg)": -44.9193161452128,
        "Longitude(deg)": -117.50311013761626,
        "Mean Anomaly(deg)": 264.7925558722451,
        "RAAN(deg)": 79.9972271308871,
        "Satellite Name": "Constellation 1 368",
        "Satellite Number": 368,
        "Semi-Major Axis(m)": 7083131.272910544,
        "Time(s)": 49
    },
    {
        "Altitude(m)": 717788.5330661633,
        "Argument of Periapsis(deg)": 0.0029974003122702807,
        "Eccentricity": 0.0,
        "Inclination(deg)": 45.0,
        "Latitude(deg)": -44.9247530760924,
        "Longitude(deg)": -117.42226953847846,
        "Mean Anomaly(deg)": 264.85325701249496,
        "RAAN(deg)": 79.99717054172152,
        "Satellite Name": "Constellation 1 368",
        "Satellite Number": 368,
        "Semi-Major Axis(m)": 7083131.272910544,
        "Time(s)": 50
    },
    {
        "Altitude(m)": 717790.7382794576,
        "Argument of Periapsis(deg)": 0.0030573483185156866,
        "Eccentricity": 0.0,
        "Inclination(deg)": 45.0,
        "Latitude(deg)": -44.93012682712518,
        "Longitude(deg)": -117.3414130399701,
        "Mean Anomaly(deg)": 264.9139581527449,
        "RAAN(deg)": 79.99711395255596,
        "Satellite Name": "Constellation 1 368",
        "Satellite Number": 368,
        "Semi-Major Axis(m)": 7083131.272910544,
        "Time(s)": 51
    },
    {
        "Altitude(m)": 717792.9174256183,
        "Argument of Periapsis(deg)": 0.003117296324761092,
        "Eccentricity": 0.0,
        "Inclination(deg)": 45.0,
        "Latitude(deg)": -44.9354373749684,
        "Longitude(deg)": -117.2605409901692,
        "Mean Anomaly(deg)": 264.9746592929948,
        "RAAN(deg)": 79.99705736339038,
        "Satellite Name": "Constellation 1 368",
        "Satellite Number": 368,
        "Semi-Major Axis(m)": 7083131.272910544,
        "Time(s)": 52
    },
    {
        "Altitude(m)": 717795.0704965803,
        "Argument of Periapsis(deg)": 0.0031772443310064975,
        "Eccentricity": 0.0,
        "Inclination(deg)": 45.0,
        "Latitude(deg)": -44.94068469654376,
        "Longitude(deg)": -117.17965323313526,
        "Mean Anomaly(deg)": 265.03536043324465,
        "RAAN(deg)": 79.99700077422482,
        "Satellite Name": "Constellation 1 368",
        "Satellite Number": 368,
        "Semi-Major Axis(m)": 7083131.272910544,
        "Time(s)": 53
    },
    {
        "Altitude(m)": 717797.1974843782,
        "Argument of Periapsis(deg)": 0.0032371923372519038,
        "Eccentricity": 0.0,
        "Inclination(deg)": 45.0,
        "Latitude(deg)": -44.945868769036665,
        "Longitude(deg)": -117.09875011749021,
        "Mean Anomaly(deg)": 265.0960615734946,
        "RAAN(deg)": 79.99694418505923,
        "Satellite Name": "Constellation 1 368",
        "Satellite Number": 368,
        "Semi-Major Axis(m)": 7083131.272910544,
        "Time(s)": 54
    },
    {
        "Altitude(m)": 717799.2983811309,
        "Argument of Periapsis(deg)": 0.0032971403434973088,
        "Eccentricity": 0.0,
        "Inclination(deg)": 45.0,
        "Latitude(deg)": -44.950989569897494,
        "Longitude(deg)": -117.01783182402625,
        "Mean Anomaly(deg)": 265.1567627137445,
        "RAAN(deg)": 79.99688759589368,
        "Satellite Name": "Constellation 1 368",
        "Satellite Number": 368,
        "Semi-Major Axis(m)": 7083131.272910544,
        "Time(s)": 55
    },
    {
        "Altitude(m)": 717801.3731790683,
        "Argument of Periapsis(deg)": 0.0033570883497427146,
        "Eccentricity": 0.0,
        "Inclination(deg)": 45.0,
        "Latitude(deg)": -44.956047076841855,
        "Longitude(deg)": -116.9368985338004,
        "Mean Anomaly(deg)": 265.2174638539944,
        "RAAN(deg)": 79.99683100672812,
        "Satellite Name": "Constellation 1 368",
        "Satellite Number": 368,
        "Semi-Major Axis(m)": 7083131.272910544,
        "Time(s)": 56
    }
]